{
  "norad_id": 52908,
  "name": "YAOGAN-35 02B",
  "history": [
    {
      "epoch": "2026-03-28T20:10:50.983104Z",
      "apogee_km": 420.0889227672951,
      "perigee_km": 414.5231830892235,
      "latitude_deg": -4.5867610863484214e-06,
      "longitude_deg": 99.3472307996313,
      "height_km": 414.6357562252889,
      "semi_major_axis_km": 6795.443052928259,
      "eccentricity": 0.00040952,
      "inclination_deg": 34.9961,
      "raan_deg": 228.3152,
      "arg_perigee_deg": 55.8824,
      "mean_anomaly_deg": 304.2287,
      "mean_motion_rev_day": 15.49801568
    },
    {
      "epoch": "2026-03-29T02:21:52.719840Z",
      "apogee_km": 419.990479572175,
      "perigee_km": 414.3911294612535,
      "latitude_deg": 2.9950049665226077e-05,
      "longitude_deg": 4.648583153979569,
      "height_km": 414.6023752980203,
      "semi_major_axis_km": 6795.3278045167135,
      "eccentricity": 0.000412,
      "inclination_deg": 34.9963,
      "raan_deg": 226.6277,
      "arg_perigee_deg": 58.1144,
      "mean_anomaly_deg": 301.998,
      "mean_motion_rev_day": 15.49840995
    },
    {
      "epoch": "2026-03-30T01:33:09.410400Z",
      "apogee_km": 419.5768078191895,
      "perigee_km": 413.9509017074788,
      "latitude_deg": -2.2250897047626927e-05,
      "longitude_deg": 9.547269469011827,
      "height_km": 414.4615813015892,
      "semi_major_axis_km": 6794.900854763334,
      "eccentricity": 0.00041398,
      "inclination_deg": 34.9968,
      "raan_deg": 220.2983,
      "arg_perigee_deg": 64.9217,
      "mean_anomaly_deg": 295.1935,
      "mean_motion_rev_day": 15.49987071
    },
    {
      "epoch": "2026-03-30T15:27:51.873696Z",
      "apogee_km": 419.31256445036524,
      "perigee_km": 413.7717753744673,
      "latitude_deg": -1.9287466295342206e-05,
      "longitude_deg": 156.50040681459203,
      "height_km": 414.4923225274005,
      "semi_major_axis_km": 6794.679169912416,
      "eccentricity": 0.00040773,
      "inclination_deg": 34.9972,
      "raan_deg": 216.4997,
      "arg_perigee_deg": 70.1725,
      "mean_anomaly_deg": 289.9437,
      "mean_motion_rev_day": 15.50062927
    },
    {
      "epoch": "2026-03-30T18:33:20.920320Z",
      "apogee_km": 419.26154523547484,
      "perigee_km": 413.68398597108717,
      "latitude_deg": 1.9622710692281117e-05,
      "longitude_deg": 109.15897526666724,
      "height_km": 414.4742189050135,
      "semi_major_axis_km": 6794.609765603281,
      "eccentricity": 0.00041044,
      "inclination_deg": 34.9972,
      "raan_deg": 215.6562,
      "arg_perigee_deg": 71.4266,
      "mean_anomaly_deg": 288.6903,
      "mean_motion_rev_day": 15.50086677
    },
    {
      "epoch": "2026-03-31T16:11:40.853760Z",
      "apogee_km": 418.90889661070287,
      "perigee_km": 413.36476916306856,
      "latitude_deg": 3.0071675087847993e-05,
      "longitude_deg": 137.7777584875819,
      "height_km": 414.5828046561035,
      "semi_major_axis_km": 6794.273832886885,
      "eccentricity": 0.000408,
      "inclination_deg": 34.9972,
      "raan_deg": 209.7467,
      "arg_perigee_deg": 80.7957,
      "mean_anomaly_deg": 279.3228,
      "mean_motion_rev_day": 15.50201641
    },
    {
      "epoch": "2026-04-01T16:55:22.068192Z",
      "apogee_km": 418.4803974482229,
      "perigee_km": 412.99366478069624,
      "latitude_deg": 1.3167296087395524e-05,
      "longitude_deg": 119.0866614017303,
      "height_km": 414.67398227258934,
      "semi_major_axis_km": 6793.874031114459,
      "eccentricity": 0.0004038,
      "inclination_deg": 34.9971,
      "raan_deg": 202.9929,
      "arg_perigee_deg": 90.9979,
      "mean_anomaly_deg": 269.1207,
      "mean_motion_rev_day": 15.50338481
    },
    {
      "epoch": "2026-04-02T17:38:54.409344Z",
      "apogee_km": 417.9471865927926,
      "perigee_km": 412.4371173176414,
      "latitude_deg": -4.281569309858071e-05,
      "longitude_deg": 100.43128158780092,
      "height_km": 414.59880959727593,
      "semi_major_axis_km": 6793.329151955217,
      "eccentricity": 0.00040555,
      "inclination_deg": 34.9972,
      "raan_deg": 196.2378,
      "arg_perigee_deg": 100.8285,
      "mean_anomaly_deg": 259.2894,
      "mean_motion_rev_day": 15.50525009
    },
    {
      "epoch": "2026-04-03T15:16:50.579328Z",
      "apogee_km": 417.460989311563,
      "perigee_km": 411.9261909467259,
      "latitude_deg": 2.7270206416422344e-05,
      "longitude_deg": 129.14763393237726,
      "height_km": 414.50608132624956,
      "semi_major_axis_km": 6792.830590129144,
      "eccentricity": 0.0004074,
      "inclination_deg": 34.9972,
      "raan_deg": 190.3265,
      "arg_perigee_deg": 109.4921,
      "mean_anomaly_deg": 250.6243,
      "mean_motion_rev_day": 15.50695714
    },
    {
      "epoch": "2026-04-04T06:43:51.037248Z",
      "apogee_km": 417.1011305470174,
      "perigee_km": 411.4979138111421,
      "latitude_deg": 4.648379372233465e-06,
      "longitude_deg": -107.46152066962975,
      "height_km": 414.34647713374886,
      "semi_major_axis_km": 6792.4365221790795,
      "eccentricity": 0.00041246,
      "inclination_deg": 34.9971,
      "raan_deg": 186.1038,
      "arg_perigee_deg": 114.412,
      "mean_anomaly_deg": 245.7034,
      "mean_motion_rev_day": 15.50830663
    },
    {
      "epoch": "2026-04-05T13:37:40.177632Z",
      "apogee_km": 416.60866342907866,
      "perigee_km": 410.8904383041736,
      "latitude_deg": 4.956186390373176e-05,
      "longitude_deg": 139.3673958022546,
      "height_km": 414.3890930182152,
      "semi_major_axis_km": 6791.886550866626,
      "eccentricity": 0.00042096,
      "inclination_deg": 34.9963,
      "raan_deg": 177.6563,
      "arg_perigee_deg": 127.7458,
      "mean_anomaly_deg": 232.3648,
      "mean_motion_rev_day": 15.51019034
    },
    {
      "epoch": "2026-04-05T15:10:21.291168Z",
      "apogee_km": 416.5919424406202,
      "perigee_km": 410.8446744786024,
      "latitude_deg": 1.5714178882632372e-05,
      "longitude_deg": 115.7102004277437,
      "height_km": 414.38464754616575,
      "semi_major_axis_km": 6791.8553084596115,
      "eccentricity": 0.0004231,
      "inclination_deg": 34.9962,
      "raan_deg": 177.2339,
      "arg_perigee_deg": 128.199,
      "mean_anomaly_deg": 231.9115,
      "mean_motion_rev_day": 15.51029736
    },
    {
      "epoch": "2026-04-06T06:37:10.602624Z",
      "apogee_km": 416.3413455230111,
      "perigee_km": 410.56333297674973,
      "latitude_deg": 1.0187043180525855e-05,
      "longitude_deg": -120.85416018560721,
      "height_km": 414.3585456855189,
      "semi_major_axis_km": 6791.58933924988,
      "eccentricity": 0.00042538,
      "inclination_deg": 34.9961,
      "raan_deg": 173.0094,
      "arg_perigee_deg": 134.2704,
      "mean_anomaly_deg": 225.8369,
      "mean_motion_rev_day": 15.51120848
    },
    {
      "epoch": "2026-04-07T15:03:20.315808Z",
      "apogee_km": 415.99496562461627,
      "perigee_km": 409.91924537219074,
      "latitude_deg": 5.6110288717854146e-05,
      "longitude_deg": 102.40092933034059,
      "height_km": 414.4180852023501,
      "semi_major_axis_km": 6791.094105498403,
      "eccentricity": 0.00044733,
      "inclination_deg": 34.996,
      "raan_deg": 164.137,
      "arg_perigee_deg": 147.8083,
      "mean_anomaly_deg": 212.2915,
      "mean_motion_rev_day": 15.51290522
    },
    {
      "epoch": "2026-04-07T21:14:00.752352Z",
      "apogee_km": 415.9074782311809,
      "perigee_km": 409.82409793361785,
      "latitude_deg": -2.9369120442229618e-05,
      "longitude_deg": 7.789004262828372,
      "height_km": 414.3731396121411,
      "semi_major_axis_km": 6791.002788082399,
      "eccentricity": 0.0004479,
      "inclination_deg": 34.9961,
      "raan_deg": 162.4474,
      "arg_perigee_deg": 149.3628,
      "mean_anomaly_deg": 210.7357,
      "mean_motion_rev_day": 15.51321812
    }
  ]
}